{"type":"FeatureCollection","features":[{"type":"Feature","properties":{"st":"NY"},"geometry":{"type":"MultiLineString","coordinates":[[[-75.402,41.999],[-75.485,41.999],[-75.743,41.998],[-76.106,41.998],[-76.145,41.998],[-76.558,42.0],[-76.928,42.002],[-76.967,42.001],[-77.125,41.999],[-77.61,41.999],[-77.75,41.998],[-78.206,41.999],[-78.31,41.999],[-78.92,41.998],[-79.06,41.999],[-79.613,41.999],[-79.763,42.0],[-79.763,42.27],[-79.645,42.315],[-79.455,42.411],[-79.351,42.489],[-79.243,42.532],[-79.15,42.553],[-79.135,42.57],[-79.11,42.614],[-79.063,42.645],[-79.049,42.689],[-78.92,42.737],[-78.852,42.784],[-78.866,42.852],[-78.913,42.887],[-78.906,42.924],[-78.931,42.955],[-79.013,42.986],[-79.006,43.047],[-79.02,43.066],[-79.074,43.077],[-79.042,43.144],[-79.06,43.251],[-79.071,43.262],[-78.97,43.281],[-78.834,43.317],[-78.633,43.358],[-78.489,43.375],[-78.464,43.371],[-78.371,43.376],[-78.234,43.369],[-78.105,43.376],[-77.994,43.365],[-77.796,43.339],[-77.714,43.323],[-77.66,43.283],[-77.578,43.243],[-77.534,43.235],[-77.502,43.25],[-77.376,43.278],[-77.265,43.278],[-77.111,43.288],[-77.036,43.272],[-76.953,43.271],[-76.903,43.292],[-76.795,43.309],[-76.723,43.344],[-76.698,43.345],[-76.616,43.419],[-76.522,43.468],[-76.486,43.475],[-76.418,43.522],[-76.368,43.526],[-76.296,43.513],[-76.235,43.529],[-76.203,43.575],[-76.199,43.681],[-76.228,43.804],[-76.3,43.839],[-76.26,43.882],[-76.21,43.891],[-76.203,43.863],[-76.127,43.898],[-76.138,43.935],[-76.206,43.975],[-76.285,43.962],[-76.267,43.987],[-76.321,44.031],[-76.375,44.032],[-76.371,44.101],[-76.314,44.199],[-76.246,44.204],[-76.163,44.24],[-76.163,44.281],[-76.099,44.3],[-76.002,44.347],[-75.969,44.343],[-75.862,44.403],[-75.822,44.432],[-75.808,44.472],[-75.765,44.516],[-75.618,44.619],[-75.506,44.705],[-75.305,44.827],[-75.309,44.837],[-75.065,44.93],[-74.972,44.984],[-74.907,44.984],[-74.828,45.016],[-74.728,44.995],[-74.663,44.999],[-74.336,44.992],[-74.146,44.991],[-74.028,44.996],[-73.676,45.003],[-73.342,45.011],[-73.339,44.918],[-73.364,44.892],[-73.378,44.838],[-73.331,44.789],[-73.367,44.741],[-73.374,44.662],[-73.389,44.636],[-73.36,44.564],[-73.339,44.546],[-73.306,44.5],[-73.292,44.441],[-73.335,44.372],[-73.313,44.264],[-73.392,44.189],[-73.41,44.113],[-73.439,44.045],[-73.407,44.022],[-73.41,43.933],[-73.374,43.876],[-73.378,43.809],[-73.349,43.772],[-73.364,43.754],[-73.407,43.688],[-73.432,43.59],[-73.396,43.568],[-73.371,43.625],[-73.303,43.625],[-73.295,43.579],[-73.249,43.554],[-73.256,43.315],[-73.274,42.943],[-73.278,42.834],[-73.292,42.802],[-73.263,42.746],[-73.353,42.51],[-73.507,42.086],[-73.496,42.05],[-73.486,42.05],[-73.518,41.667],[-73.529,41.527],[-73.543,41.366],[-73.55,41.296],[-73.482,41.212],[-73.726,41.101],[-73.654,41.013],[-73.658,40.985],[-73.683,40.949],[-73.758,40.913],[-73.766,40.877],[-73.766,40.845],[-73.812,40.846],[-73.787,40.802],[-73.769,40.8],[-73.715,40.87],[-73.676,40.857],[-73.64,40.893],[-73.565,40.916],[-73.496,40.923],[-73.486,40.946],[-73.407,40.92],[-73.4,40.956],[-73.367,40.932],[-73.295,40.925],[-73.231,40.905],[-73.148,40.929],[-73.141,40.966],[-73.08,40.973],[-73.044,40.962],[-72.775,40.965],[-72.635,40.982],[-72.585,40.998],[-72.477,41.052],[-72.445,41.086],[-72.402,41.097],[-72.355,41.14],[-72.28,41.158],[-72.237,41.157],[-72.301,41.112],[-72.334,41.107],[-72.28,41.08],[-72.262,41.042],[-72.201,41.032],[-72.161,41.054],[-72.104,40.992],[-72.05,41.006],[-71.967,41.048],[-71.96,41.072],[-71.899,41.081],[-71.856,41.071],[-71.874,41.053],[-72.115,40.972],[-72.395,40.866],[-72.574,40.813],[-72.865,40.733],[-73.055,40.666],[-73.209,40.631],[-73.306,40.621],[-73.328,40.633],[-73.425,40.61],[-73.557,40.582],[-73.751,40.59],[-73.834,40.578],[-73.942,40.543],[-73.934,40.569],[-74.013,40.574],[-74.003,40.596],[-74.042,40.629],[-74.021,40.681],[-74.046,40.69],[-74.024,40.709],[-74.01,40.765],[-73.985,40.799],[-73.934,40.882],[-73.916,40.918],[-73.895,40.997],[-73.906,40.998],[-74.211,41.133],[-74.236,41.143],[-74.369,41.204],[-74.695,41.358],[-74.756,41.425],[-74.807,41.443],[-74.896,41.44],[-74.889,41.456],[-74.943,41.484],[-74.982,41.48],[-74.986,41.509],[-75.069,41.602],[-75.043,41.624],[-75.054,41.753],[-75.104,41.771],[-75.076,41.798],[-75.148,41.851],[-75.209,41.87],[-75.262,41.866],[-75.291,41.952],[-75.309,41.949],[-75.359,41.999],[-75.402,41.999]],[[-72.036,41.255],[-72.025,41.271],[-71.928,41.29],[-72.003,41.253],[-72.036,41.255]],[[-72.143,41.098],[-72.125,41.115],[-72.086,41.102],[-72.086,41.059],[-72.107,41.089],[-72.143,41.098]],[[-72.215,41.183],[-72.158,41.197],[-72.201,41.16],[-72.215,41.183]],[[-76.375,43.875],[-76.318,43.918],[-76.336,43.879],[-76.375,43.875]],[[-76.454,43.891],[-76.411,43.925],[-76.379,43.921],[-76.454,43.891]],[[-74.204,40.593],[-74.204,40.631],[-74.16,40.645],[-74.071,40.661],[-74.053,40.603],[-74.085,40.57],[-74.222,40.503],[-74.261,40.502],[-74.25,40.545],[-74.218,40.559],[-74.204,40.593]]]}},{"type":"Feature","properties":{"st":"MD"},"geometry":{"type":"MultiLineString","coordinates":[[[-76.788,39.721],[-76.569,39.721],[-76.239,39.722],[-76.232,39.722],[-76.135,39.722],[-75.79,39.722],[-75.79,39.648],[-75.768,39.377],[-75.761,39.297],[-75.758,39.246],[-75.747,39.143],[-75.722,38.83],[-75.707,38.635],[-75.7,38.561],[-75.693,38.46],[-75.341,38.452],[-75.051,38.451],[-75.054,38.414],[-75.087,38.324],[-75.104,38.311],[-75.176,38.13],[-75.241,38.027],[-75.625,37.994],[-75.646,37.947],[-75.668,37.951],[-75.715,37.976],[-75.783,37.973],[-75.862,37.918],[-75.894,37.917],[-75.898,37.975],[-75.873,38.035],[-75.812,38.059],[-75.873,38.061],[-75.865,38.099],[-75.826,38.134],[-75.901,38.141],[-75.944,38.113],[-75.959,38.137],[-75.941,38.187],[-75.847,38.21],[-75.865,38.238],[-75.901,38.232],[-75.905,38.298],[-75.862,38.352],[-75.916,38.339],[-75.941,38.299],[-75.941,38.247],[-75.969,38.246],[-76.009,38.312],[-75.969,38.32],[-75.973,38.366],[-76.002,38.374],[-76.016,38.332],[-76.048,38.304],[-76.027,38.28],[-76.059,38.227],[-76.074,38.252],[-76.135,38.232],[-76.167,38.243],[-76.224,38.314],[-76.257,38.325],[-76.249,38.362],[-76.336,38.492],[-76.264,38.504],[-76.246,38.537],[-76.275,38.531],[-76.307,38.575],[-76.278,38.609],[-76.235,38.628],[-76.214,38.607],[-76.171,38.629],[-76.167,38.598],[-76.088,38.591],[-76.041,38.557],[-76.031,38.573],[-76.084,38.625],[-76.145,38.637],[-76.174,38.673],[-76.199,38.67],[-76.257,38.737],[-76.275,38.713],[-76.318,38.73],[-76.321,38.679],[-76.346,38.686],[-76.336,38.773],[-76.271,38.852],[-76.221,38.813],[-76.192,38.822],[-76.199,38.851],[-76.203,38.928],[-76.232,38.943],[-76.293,38.902],[-76.336,38.906],[-76.332,38.865],[-76.375,38.85],[-76.361,38.939],[-76.303,39.026],[-76.278,38.982],[-76.203,38.973],[-76.163,39.0],[-76.185,39.046],[-76.16,39.094],[-76.203,39.085],[-76.214,39.041],[-76.199,39.014],[-76.242,39.029],[-76.232,39.083],[-76.253,39.134],[-76.278,39.146],[-76.221,39.262],[-76.178,39.298],[-76.185,39.319],[-76.135,39.341],[-76.109,39.372],[-76.023,39.362],[-76.002,39.377],[-76.041,39.388],[-75.977,39.448],[-76.013,39.453],[-75.969,39.558],[-76.077,39.543],[-76.117,39.496],[-76.074,39.475],[-76.059,39.448],[-76.102,39.436],[-76.224,39.353],[-76.249,39.379],[-76.224,39.426],[-76.253,39.45],[-76.253,39.412],[-76.285,39.368],[-76.257,39.339],[-76.282,39.299],[-76.314,39.39],[-76.357,39.39],[-76.336,39.305],[-76.364,39.312],[-76.386,39.276],[-76.343,39.257],[-76.418,39.219],[-76.443,39.195],[-76.49,39.202],[-76.529,39.241],[-76.576,39.264],[-76.565,39.225],[-76.533,39.207],[-76.526,39.178],[-76.429,39.132],[-76.422,39.074],[-76.44,39.053],[-76.393,39.012],[-76.476,38.973],[-76.45,38.941],[-76.461,38.907],[-76.494,38.91],[-76.519,38.863],[-76.497,38.817],[-76.558,38.768],[-76.529,38.713],[-76.533,38.678],[-76.511,38.616],[-76.519,38.539],[-76.494,38.483],[-76.415,38.414],[-76.386,38.361],[-76.418,38.323],[-76.472,38.324],[-76.454,38.293],[-76.404,38.311],[-76.375,38.299],[-76.4,38.259],[-76.386,38.218],[-76.321,38.139],[-76.339,38.12],[-76.321,38.037],[-76.354,38.053],[-76.393,38.103],[-76.422,38.106],[-76.44,38.161],[-76.468,38.153],[-76.476,38.104],[-76.501,38.137],[-76.529,38.134],[-76.547,38.176],[-76.59,38.214],[-76.673,38.234],[-76.799,38.237],[-76.827,38.347],[-76.849,38.355],[-76.87,38.332],[-76.835,38.274],[-76.842,38.255],[-76.921,38.292],[-76.928,38.321],[-76.975,38.347],[-77.018,38.445],[-77.089,38.408],[-77.208,38.36],[-77.251,38.383],[-77.276,38.481],[-77.237,38.552],[-77.183,38.601],[-77.111,38.627],[-77.129,38.635],[-77.132,38.674],[-77.086,38.706],[-77.043,38.719],[-77.039,38.786],[-77.039,38.792],[-76.91,38.893],[-77.003,38.965],[-77.043,38.994],[-77.118,38.934],[-77.15,38.966],[-77.222,38.971],[-77.251,38.986],[-77.247,39.027],[-77.33,39.058],[-77.463,39.076],[-77.484,39.109],[-77.52,39.121],[-77.516,39.17],[-77.459,39.22],[-77.495,39.251],[-77.542,39.265],[-77.563,39.304],[-77.617,39.303],[-77.678,39.324],[-77.721,39.322],[-77.757,39.334],[-77.735,39.388],[-77.753,39.425],[-77.786,39.435],[-77.796,39.481],[-77.825,39.494],[-77.825,39.53],[-77.861,39.514],[-77.89,39.558],[-77.832,39.571],[-77.832,39.603],[-77.883,39.599],[-77.944,39.619],[-78.008,39.602],[-78.023,39.62],[-78.098,39.678],[-78.184,39.695],[-78.267,39.619],[-78.335,39.636],[-78.382,39.629],[-78.385,39.609],[-78.435,39.618],[-78.396,39.591],[-78.443,39.591],[-78.417,39.549],[-78.468,39.517],[-78.568,39.52],[-78.593,39.536],[-78.658,39.535],[-78.726,39.564],[-78.733,39.586],[-78.78,39.602],[-78.733,39.614],[-78.78,39.622],[-78.916,39.487],[-78.956,39.44],[-79.067,39.475],[-79.096,39.473],[-79.142,39.408],[-79.254,39.357],[-79.272,39.329],[-79.29,39.299],[-79.333,39.3],[-79.451,39.212],[-79.487,39.206],[-79.476,39.721],[-79.394,39.721],[-78.927,39.723],[-78.809,39.723],[-78.382,39.723],[-78.342,39.723],[-78.098,39.723],[-77.47,39.72],[-77.459,39.72],[-77.219,39.72],[-77.0,39.72],[-76.788,39.721]],[[-76.048,38.121],[-76.092,38.115],[-76.088,38.193],[-76.048,38.204],[-76.023,38.178],[-76.031,38.147],[-76.005,38.077],[-76.059,38.095],[-76.048,38.121]],[[-76.397,38.771],[-76.379,38.788],[-76.361,38.749],[-76.397,38.771]],[[-75.995,37.953],[-76.045,37.953],[-76.048,38.015],[-76.02,38.039],[-75.98,38.005],[-75.995,37.953]]]}},{"type":"Feature","properties":{"st":"PA"},"geometry":{"type":"MultiLineString","coordinates":[[[-76.239,39.722],[-76.569,39.721],[-76.788,39.721],[-77.0,39.72],[-77.219,39.72],[-77.459,39.72],[-77.47,39.72],[-78.098,39.723],[-78.342,39.723],[-78.382,39.723],[-78.809,39.723],[-78.927,39.723],[-79.394,39.721],[-79.476,39.721],[-79.763,39.721],[-79.918,39.721],[-80.42,39.721],[-80.521,39.721],[-80.517,39.891],[-80.521,39.963],[-80.521,40.017],[-80.521,40.159],[-80.517,40.4],[-80.521,40.477],[-80.521,40.639],[-80.521,40.852],[-80.521,40.901],[-80.521,41.125],[-80.521,41.133],[-80.517,41.209],[-80.521,41.489],[-80.521,41.5],[-80.521,41.85],[-80.521,41.978],[-80.348,42.03],[-80.187,42.094],[-80.155,42.114],[-80.119,42.166],[-80.072,42.169],[-80.061,42.145],[-79.932,42.206],[-79.763,42.27],[-79.763,42.0],[-79.613,41.999],[-79.06,41.999],[-78.92,41.998],[-78.31,41.999],[-78.206,41.999],[-77.75,41.998],[-77.61,41.999],[-77.125,41.999],[-76.967,42.001],[-76.928,42.002],[-76.558,42.0],[-76.145,41.998],[-76.106,41.998],[-75.743,41.998],[-75.485,41.999],[-75.402,41.999],[-75.359,41.999],[-75.309,41.949],[-75.291,41.952],[-75.262,41.866],[-75.209,41.87],[-75.148,41.851],[-75.076,41.798],[-75.104,41.771],[-75.054,41.753],[-75.043,41.624],[-75.069,41.602],[-74.986,41.509],[-74.982,41.48],[-74.943,41.484],[-74.889,41.456],[-74.896,41.44],[-74.807,41.443],[-74.756,41.425],[-74.695,41.358],[-74.753,41.346],[-74.832,41.287],[-74.882,41.181],[-74.921,41.139],[-74.993,41.092],[-74.968,41.095],[-75.026,41.04],[-75.133,40.989],[-75.119,40.968],[-75.097,40.924],[-75.051,40.871],[-75.133,40.773],[-75.173,40.778],[-75.205,40.692],[-75.176,40.673],[-75.201,40.647],[-75.198,40.609],[-75.191,40.591],[-75.162,40.564],[-75.101,40.568],[-75.065,40.536],[-75.072,40.455],[-75.058,40.416],[-74.968,40.4],[-74.943,40.341],[-74.868,40.295],[-74.842,40.25],[-74.771,40.215],[-74.724,40.151],[-74.781,40.121],[-74.817,40.127],[-74.86,40.084],[-74.975,40.049],[-75.061,39.992],[-75.13,39.959],[-75.14,39.889],[-75.212,39.865],[-75.27,39.849],[-75.356,39.84],[-75.417,39.802],[-75.499,39.834],[-75.596,39.837],[-75.664,39.822],[-75.718,39.792],[-75.79,39.722],[-76.135,39.722],[-76.232,39.722],[-76.239,39.722]]]}},{"type":"Feature","properties":{"st":"VA"},"geometry":{"type":"MultiLineString","coordinates":[[[-79.649,38.591],[-79.537,38.551],[-79.476,38.457],[-79.311,38.412],[-79.225,38.478],[-79.121,38.66],[-79.092,38.659],[-79.089,38.72],[-79.056,38.762],[-78.995,38.85],[-78.87,38.763],[-78.798,38.875],[-78.715,38.936],[-78.715,38.905],[-78.679,38.926],[-78.626,38.982],[-78.6,38.964],[-78.55,39.018],[-78.572,39.032],[-78.543,39.056],[-78.507,39.089],[-78.46,39.114],[-78.403,39.167],[-78.439,39.198],[-78.399,39.244],[-78.421,39.257],[-78.338,39.348],[-78.364,39.358],[-78.342,39.389],[-78.36,39.413],[-78.346,39.466],[-78.227,39.391],[-78.033,39.265],[-77.829,39.133],[-77.753,39.283],[-77.721,39.322],[-77.678,39.324],[-77.617,39.303],[-77.563,39.304],[-77.542,39.265],[-77.495,39.251],[-77.459,39.22],[-77.516,39.17],[-77.52,39.121],[-77.484,39.109],[-77.463,39.076],[-77.33,39.058],[-77.247,39.027],[-77.251,38.986],[-77.222,38.971],[-77.15,38.966],[-77.118,38.934],[-77.039,38.872],[-77.043,38.84],[-77.039,38.792],[-77.039,38.786],[-77.043,38.719],[-77.086,38.706],[-77.132,38.674],[-77.129,38.635],[-77.201,38.617],[-77.222,38.638],[-77.247,38.635],[-77.247,38.591],[-77.301,38.505],[-77.326,38.449],[-77.312,38.391],[-77.287,38.349],[-77.24,38.332],[-77.161,38.346],[-77.14,38.368],[-77.086,38.368],[-77.043,38.401],[-77.01,38.375],[-77.032,38.311],[-76.996,38.278],[-76.964,38.256],[-76.964,38.214],[-76.838,38.164],[-76.748,38.162],[-76.723,38.138],[-76.702,38.156],[-76.616,38.148],[-76.601,38.11],[-76.544,38.077],[-76.519,38.035],[-76.468,38.013],[-76.415,37.967],[-76.343,37.947],[-76.235,37.889],[-76.253,37.833],[-76.307,37.812],[-76.321,37.681],[-76.339,37.656],[-76.293,37.636],[-76.361,37.61],[-76.472,37.665],[-76.511,37.642],[-76.537,37.664],[-76.537,37.699],[-76.583,37.768],[-76.641,37.793],[-76.68,37.826],[-76.723,37.836],[-76.799,37.925],[-76.838,37.934],[-76.852,37.973],[-76.906,37.999],[-76.906,37.973],[-76.806,37.896],[-76.734,37.799],[-76.684,37.77],[-76.619,37.744],[-76.583,37.662],[-76.544,37.616],[-76.436,37.613],[-76.411,37.582],[-76.3,37.561],[-76.354,37.527],[-76.328,37.495],[-76.293,37.517],[-76.264,37.482],[-76.246,37.387],[-76.275,37.31],[-76.339,37.364],[-76.404,37.4],[-76.447,37.366],[-76.407,37.333],[-76.382,37.286],[-76.35,37.274],[-76.418,37.264],[-76.497,37.241],[-76.472,37.216],[-76.393,37.226],[-76.397,37.165],[-76.35,37.171],[-76.336,37.144],[-76.289,37.117],[-76.271,37.085],[-76.303,37.001],[-76.318,37.014],[-76.389,36.989],[-76.429,36.97],[-76.465,37.028],[-76.569,37.08],[-76.619,37.119],[-76.612,37.167],[-76.651,37.221],[-76.73,37.214],[-76.759,37.192],[-76.795,37.232],[-76.86,37.241],[-76.874,37.261],[-76.942,37.234],[-76.91,37.202],[-76.867,37.209],[-76.802,37.198],[-76.748,37.151],[-76.716,37.149],[-76.687,37.199],[-76.662,37.174],[-76.673,37.142],[-76.655,37.039],[-76.576,37.023],[-76.486,36.952],[-76.483,36.929],[-76.483,36.897],[-76.407,36.897],[-76.386,36.923],[-76.354,36.923],[-76.332,36.889],[-76.318,36.885],[-76.328,36.959],[-76.267,36.964],[-76.185,36.931],[-76.095,36.909],[-76.034,36.932],[-75.995,36.922],[-75.966,36.812],[-75.923,36.692],[-75.891,36.631],[-75.865,36.55],[-76.124,36.55],[-76.314,36.55],[-76.49,36.55],[-76.54,36.55],[-76.917,36.552],[-76.917,36.543],[-77.165,36.546],[-77.298,36.544],[-77.768,36.545],[-77.901,36.544],[-78.048,36.544],[-78.324,36.543],[-78.457,36.543],[-78.733,36.542],[-78.798,36.542],[-79.139,36.542],[-79.218,36.542],[-79.343,36.541],[-79.469,36.541],[-79.512,36.541],[-79.713,36.542],[-80.029,36.543],[-80.054,36.543],[-80.295,36.544],[-80.442,36.55],[-80.61,36.558],[-80.704,36.562],[-80.837,36.559],[-80.901,36.562],[-81.178,36.572],[-81.353,36.574],[-81.676,36.588],[-81.648,36.612],[-81.827,36.614],[-81.924,36.616],[-81.935,36.594],[-82.147,36.595],[-82.244,36.596],[-82.294,36.596],[-82.61,36.594],[-82.832,36.594],[-82.987,36.594],[-83.259,36.594],[-83.277,36.598],[-83.471,36.598],[-83.676,36.601],[-83.647,36.624],[-83.529,36.666],[-83.46,36.665],[-83.432,36.666],[-83.313,36.709],[-83.195,36.739],[-83.137,36.743],[-83.13,36.786],[-83.073,36.854],[-82.969,36.858],[-82.879,36.893],[-82.857,36.927],[-82.868,36.974],[-82.825,37.007],[-82.782,37.008],[-82.725,37.042],[-82.725,37.116],[-82.635,37.154],[-82.567,37.196],[-82.552,37.203],[-82.488,37.232],[-82.355,37.265],[-82.315,37.296],[-81.967,37.537],[-81.928,37.512],[-81.992,37.483],[-81.989,37.455],[-81.935,37.436],[-81.928,37.359],[-81.877,37.332],[-81.852,37.287],[-81.788,37.285],[-81.745,37.263],[-81.737,37.238],[-81.676,37.202],[-81.554,37.208],[-81.508,37.232],[-81.501,37.258],[-81.418,37.273],[-81.389,37.32],[-81.361,37.338],[-81.321,37.299],[-81.224,37.235],[-81.113,37.279],[-80.98,37.302],[-80.98,37.293],[-80.919,37.306],[-80.851,37.347],[-80.883,37.384],[-80.858,37.429],[-80.858,37.428],[-80.783,37.395],[-80.768,37.372],[-80.621,37.433],[-80.553,37.474],[-80.51,37.482],[-80.496,37.435],[-80.474,37.424],[-80.298,37.508],[-80.284,37.533],[-80.33,37.537],[-80.327,37.564],[-80.262,37.593],[-80.219,37.628],[-80.28,37.657],[-80.295,37.692],[-80.252,37.726],[-80.259,37.756],[-80.183,37.853],[-80.058,37.952],[-80.011,37.986],[-79.961,38.064],[-79.925,38.107],[-79.946,38.132],[-79.921,38.18],[-79.832,38.25],[-79.796,38.267],[-79.81,38.305],[-79.731,38.38],[-79.688,38.432],[-79.699,38.488],[-79.649,38.591]],[[-75.668,37.951],[-75.646,37.947],[-75.625,37.994],[-75.241,38.027],[-75.298,37.959],[-75.352,37.875],[-75.381,37.852],[-75.399,37.87],[-75.453,37.864],[-75.521,37.797],[-75.564,37.737],[-75.603,37.628],[-75.6,37.573],[-75.672,37.483],[-75.675,37.464],[-75.657,37.451],[-75.722,37.373],[-75.765,37.305],[-75.797,37.296],[-75.794,37.247],[-75.833,37.173],[-75.898,37.118],[-75.955,37.12],[-75.941,37.09],[-75.973,37.086],[-75.977,37.158],[-76.013,37.205],[-76.027,37.257],[-76.02,37.317],[-75.987,37.368],[-75.977,37.445],[-75.937,37.549],[-75.926,37.6],[-75.869,37.668],[-75.804,37.762],[-75.819,37.792],[-75.743,37.806],[-75.69,37.862],[-75.686,37.886],[-75.758,37.904],[-75.668,37.951]],[[-75.998,37.848],[-75.973,37.835],[-75.998,37.812],[-75.998,37.848]],[[-75.995,37.953],[-76.034,37.915],[-76.045,37.953],[-75.995,37.953]]]}},{"type":"Feature","properties":{"st":"MA"},"geometry":{"type":"MultiLineString","coordinates":[[[-71.257,42.736],[-71.246,42.742],[-71.181,42.737],[-71.185,42.791],[-71.131,42.821],[-71.063,42.806],[-71.031,42.859],[-70.901,42.887],[-70.848,42.861],[-70.819,42.872],[-70.812,42.81],[-70.779,42.693],[-70.69,42.653],[-70.647,42.689],[-70.596,42.66],[-70.654,42.583],[-70.736,42.577],[-70.873,42.547],[-70.83,42.504],[-70.894,42.461],[-70.919,42.468],[-70.937,42.418],[-70.962,42.443],[-70.991,42.407],[-70.952,42.344],[-70.998,42.352],[-70.991,42.313],[-70.988,42.267],[-70.955,42.285],[-70.883,42.309],[-70.862,42.276],[-70.826,42.266],[-70.779,42.252],[-70.722,42.208],[-70.715,42.169],[-70.639,42.089],[-70.643,42.046],[-70.668,42.012],[-70.711,42.008],[-70.7,41.987],[-70.625,41.944],[-70.582,41.95],[-70.553,41.93],[-70.525,41.858],[-70.539,41.811],[-70.496,41.774],[-70.413,41.744],[-70.291,41.734],[-70.259,41.714],[-70.191,41.752],[-70.123,41.759],[-70.026,41.787],[-70.004,41.809],[-70.008,41.877],[-70.029,41.929],[-70.076,41.902],[-70.076,41.986],[-70.094,42.033],[-70.148,42.062],[-70.18,42.056],[-70.198,42.023],[-70.237,42.073],[-70.191,42.083],[-70.115,42.067],[-70.033,42.017],[-69.968,41.912],[-69.936,41.809],[-69.929,41.692],[-69.983,41.581],[-69.99,41.543],[-70.015,41.551],[-69.972,41.647],[-69.997,41.667],[-70.09,41.663],[-70.245,41.628],[-70.352,41.635],[-70.377,41.611],[-70.438,41.605],[-70.492,41.552],[-70.611,41.543],[-70.668,41.513],[-70.733,41.486],[-70.79,41.446],[-70.866,41.422],[-70.948,41.409],[-70.927,41.432],[-70.801,41.461],[-70.693,41.526],[-70.657,41.543],[-70.639,41.578],[-70.643,41.718],[-70.718,41.736],[-70.718,41.685],[-70.743,41.697],[-70.758,41.654],[-70.808,41.657],[-70.801,41.629],[-70.844,41.628],[-70.855,41.582],[-70.869,41.626],[-70.912,41.62],[-70.937,41.578],[-70.93,41.54],[-70.952,41.515],[-71.041,41.495],[-71.084,41.51],[-71.12,41.498],[-71.131,41.66],[-71.196,41.675],[-71.224,41.711],[-71.26,41.752],[-71.318,41.776],[-71.346,41.828],[-71.339,41.898],[-71.382,41.893],[-71.382,41.985],[-71.382,42.019],[-71.497,42.017],[-71.799,42.008],[-71.802,42.023],[-72.104,42.029],[-72.136,42.03],[-72.509,42.035],[-72.606,42.031],[-72.757,42.036],[-72.768,42.003],[-72.818,41.998],[-72.815,42.036],[-73.008,42.039],[-73.055,42.04],[-73.432,42.051],[-73.486,42.05],[-73.496,42.05],[-73.507,42.086],[-73.353,42.51],[-73.263,42.746],[-73.023,42.741],[-72.929,42.739],[-72.459,42.727],[-72.283,42.722],[-71.928,42.712],[-71.899,42.712],[-71.293,42.697],[-71.257,42.736]],[[-70.277,41.31],[-70.23,41.29],[-70.126,41.294],[-70.062,41.309],[-70.018,41.369],[-69.961,41.279],[-69.965,41.253],[-70.001,41.239],[-70.119,41.243],[-70.266,41.294],[-70.277,41.31]],[[-70.833,41.353],[-70.769,41.353],[-70.7,41.431],[-70.603,41.482],[-70.564,41.469],[-70.539,41.409],[-70.485,41.386],[-70.449,41.42],[-70.453,41.348],[-70.6,41.349],[-70.711,41.341],[-70.776,41.301],[-70.833,41.353]]]}},{"type":"Feature","properties":{"st":"NJ"},"geometry":{"type":"MultiLineString","coordinates":[[[-75.417,39.802],[-75.356,39.84],[-75.27,39.849],[-75.212,39.865],[-75.14,39.889],[-75.13,39.959],[-75.061,39.992],[-74.975,40.049],[-74.86,40.084],[-74.817,40.127],[-74.781,40.121],[-74.724,40.151],[-74.771,40.215],[-74.842,40.25],[-74.868,40.295],[-74.943,40.341],[-74.968,40.4],[-75.058,40.416],[-75.072,40.455],[-75.065,40.536],[-75.101,40.568],[-75.162,40.564],[-75.191,40.591],[-75.198,40.609],[-75.201,40.647],[-75.176,40.673],[-75.205,40.692],[-75.173,40.778],[-75.133,40.773],[-75.051,40.871],[-75.097,40.924],[-75.119,40.968],[-75.133,40.989],[-75.026,41.04],[-74.968,41.095],[-74.993,41.092],[-74.921,41.139],[-74.882,41.181],[-74.832,41.287],[-74.753,41.346],[-74.695,41.358],[-74.369,41.204],[-74.236,41.143],[-74.211,41.133],[-73.906,40.998],[-73.895,40.997],[-73.916,40.918],[-73.934,40.882],[-73.985,40.799],[-74.01,40.765],[-74.024,40.709],[-74.046,40.69],[-74.071,40.661],[-74.16,40.645],[-74.204,40.631],[-74.204,40.593],[-74.218,40.559],[-74.25,40.545],[-74.261,40.502],[-74.261,40.465],[-74.225,40.453],[-74.135,40.456],[-74.049,40.419],[-73.999,40.411],[-73.985,40.449],[-73.97,40.371],[-73.981,40.28],[-74.031,40.123],[-74.031,40.101],[-74.078,39.911],[-74.096,39.762],[-74.239,39.555],[-74.311,39.499],[-74.3,39.479],[-74.336,39.432],[-74.458,39.345],[-74.541,39.3],[-74.638,39.221],[-74.713,39.12],[-74.792,38.992],[-74.864,38.94],[-74.932,38.928],[-74.972,38.94],[-74.95,39.016],[-74.896,39.099],[-74.886,39.158],[-74.914,39.177],[-75.026,39.194],[-75.047,39.215],[-75.112,39.213],[-75.137,39.182],[-75.169,39.202],[-75.176,39.243],[-75.241,39.274],[-75.252,39.3],[-75.288,39.29],[-75.341,39.348],[-75.366,39.341],[-75.406,39.382],[-75.431,39.391],[-75.467,39.439],[-75.535,39.461],[-75.514,39.581],[-75.557,39.606],[-75.56,39.63],[-75.51,39.686],[-75.478,39.713],[-75.46,39.766],[-75.413,39.794],[-75.417,39.802]]]}},{"type":"Feature","properties":{"st":"DE"},"geometry":{"type":"MultiLineString","coordinates":[[[-75.722,38.83],[-75.747,39.143],[-75.758,39.246],[-75.761,39.297],[-75.768,39.377],[-75.79,39.648],[-75.79,39.722],[-75.718,39.792],[-75.664,39.822],[-75.596,39.837],[-75.499,39.834],[-75.417,39.802],[-75.413,39.794],[-75.46,39.766],[-75.478,39.713],[-75.51,39.686],[-75.532,39.692],[-75.611,39.622],[-75.603,39.589],[-75.564,39.562],[-75.56,39.52],[-75.589,39.496],[-75.589,39.461],[-75.539,39.416],[-75.514,39.365],[-75.438,39.313],[-75.402,39.255],[-75.392,39.205],[-75.41,39.175],[-75.402,39.067],[-75.345,39.025],[-75.313,38.946],[-75.305,38.913],[-75.191,38.807],[-75.133,38.782],[-75.097,38.803],[-75.083,38.772],[-75.065,38.661],[-75.051,38.451],[-75.341,38.452],[-75.693,38.46],[-75.7,38.561],[-75.707,38.635],[-75.722,38.83]]]}},{"type":"Feature","properties":{"st":"CT"},"geometry":{"type":"MultiLineString","coordinates":[[[-72.341,41.28],[-72.387,41.261],[-72.398,41.279],[-72.452,41.279],[-72.538,41.255],[-72.57,41.268],[-72.664,41.269],[-72.689,41.247],[-72.753,41.267],[-72.897,41.243],[-72.908,41.295],[-72.94,41.28],[-73.008,41.21],[-73.051,41.21],[-73.109,41.169],[-73.13,41.147],[-73.177,41.167],[-73.263,41.117],[-73.288,41.128],[-73.371,41.104],[-73.353,41.085],[-73.389,41.058],[-73.493,41.048],[-73.572,41.002],[-73.604,41.015],[-73.658,40.985],[-73.654,41.013],[-73.726,41.101],[-73.482,41.212],[-73.55,41.296],[-73.543,41.366],[-73.529,41.527],[-73.518,41.667],[-73.486,42.05],[-73.432,42.051],[-73.055,42.04],[-73.008,42.039],[-72.815,42.036],[-72.818,41.998],[-72.768,42.003],[-72.757,42.036],[-72.606,42.031],[-72.509,42.035],[-72.136,42.03],[-72.104,42.029],[-71.802,42.023],[-71.799,42.008],[-71.799,41.916],[-71.788,41.725],[-71.788,41.64],[-71.788,41.596],[-71.799,41.417],[-71.842,41.41],[-71.831,41.345],[-71.86,41.32],[-71.885,41.336],[-71.946,41.338],[-72.021,41.317],[-72.086,41.32],[-72.133,41.299],[-72.19,41.323],[-72.212,41.291],[-72.341,41.28]]]}}]}